STARLINK-2610
1 28376C 21038Z   21325.13714111  .00009112  00000-0  61076-3 0  3253
2 28376  53.0544 197.6195 0001769  69.1920  88.6689 15.06374370    11
